STARLINK-2093_new
1 17374C 21005AB  21326.13436918 -.00014825  00000-0 -99318-3 0  3261
2 17374  53.0519 263.2132 0001599  53.6405 275.3809 15.06417649    14
STARLINK-2093_old
1 27374C 21005AB  21325.15918895  .00005931  00000-0  39737-3 0  3255
2 27374  53.0524 267.5907 0001566  52.7511  24.8985 15.06393785    15
